{
  "type": "FeatureCollection",
  "features": [
    {
      "type": "Feature",
      "properties": {
        "norad_id": 43286,
        "name": "IRNSS-1I",
        "group": "gnss",
        "lat": 19.56542239976788,
        "lon": 116.80191229596988,
        "alt_km": 35849.977606590524,
        "timestamp": "2025-12-02T23:34:15.759015+00:00",
        "meta_object_name": "IRNSS-1I",
        "meta_object_id": "2018-035A",
        "meta_epoch": "2025-12-01T20:55:25.921056",
        "meta_mean_motion": 1.00277369,
        "meta_eccentricity": 0.00215484,
        "meta_inclination": 29.1236,
        "meta_ra_of_asc_node": 77.2687,
        "meta_arg_of_pericenter": 181.5881,
        "meta_mean_anomaly": 181.125,
        "meta_ephemeris_type": 0,
        "meta_classification_type": "U",
        "meta_norad_cat_id": 43286,
        "meta_element_set_no": 999,
        "meta_rev_at_epoch": 2810,
        "meta_bstar": 0,
        "meta_mean_motion_dot": 9.2e-07,
        "meta_mean_motion_ddot": 0,
        "tle_line1": "1 43286U 18035A   25335.87182779  .00000092  00000+0  00000+0 0  9996",
        "tle_line2": "2 43286  29.1236  77.2687 0021548 181.5881 181.1250  1.00277369 28101"
      },
      "geometry": {
        "type": "Point",
        "coordinates": [
          116.80191229596988,
          19.56542239976788
        ]
      }
    },
    {
      "type": "Feature",
      "properties": {
        "norad_id": 43508,
        "name": "COSMOS 2527 (756)",
        "group": "gnss",
        "lat": 33.448707657211564,
        "lon": 97.98953847838781,
        "alt_km": 19147.955976929563,
        "timestamp": "2025-12-02T23:34:15.759030+00:00",
        "meta_object_name": "COSMOS 2527 (756)",
        "meta_object_id": "2018-053A",
        "meta_epoch": "2025-12-02T11:08:26.615616",
        "meta_mean_motion": 2.13102038,
        "meta_eccentricity": 0.0008635,
        "meta_inclination": 65.467,
        "meta_ra_of_asc_node": 80.4752,
        "meta_arg_of_pericenter": 223.9095,
        "meta_mean_anomaly": 136.0181,
        "meta_ephemeris_type": 0,
        "meta_classification_type": "U",
        "meta_norad_cat_id": 43508,
        "meta_element_set_no": 999,
        "meta_rev_at_epoch": 5808,
        "meta_bstar": 0,
        "meta_mean_motion_dot": -1.9e-07,
        "meta_mean_motion_ddot": 0,
        "tle_line1": "1 43508U 18053A   25336.46419694 -.00000019  00000+0  00000+0 0  9998",
        "tle_line2": "2 43508  65.4670  80.4752 0008635 223.9095 136.0181  2.13102038 58089"
      },
      "geometry": {
        "type": "Point",
        "coordinates": [
          97.98953847838781,
          33.448707657211564
        ]
      }
    },
    {
      "type": "Feature",
      "properties": {
        "norad_id": 43539,
        "name": "BEIDOU-2 IGSO-7 (C16)",
        "group": "gnss",
        "lat": 10.605388148547554,
        "lon": 172.25722008476123,
        "alt_km": 36076.13641146624,
        "timestamp": "2025-12-02T23:34:15.759042+00:00",
        "meta_object_name": "BEIDOU-2 IGSO-7 (C16)",
        "meta_object_id": "2018-057A",
        "meta_epoch": "2025-12-01T22:54:18.573696",
        "meta_mean_motion": 1.00259974,
        "meta_eccentricity": 0.00924716,
        "meta_inclination": 55.1727,
        "meta_ra_of_asc_node": 164.7667,
        "meta_arg_of_pericenter": 235.1548,
        "meta_mean_anomaly": 126.2091,
        "meta_ephemeris_type": 0,
        "meta_classification_type": "U",
        "meta_norad_cat_id": 43539,
        "meta_element_set_no": 999,
        "meta_rev_at_epoch": 2715,
        "meta_bstar": 0,
        "meta_mean_motion_dot": -1.8e-07,
        "meta_mean_motion_ddot": 0,
        "tle_line1": "1 43539U 18057A   25335.95438164 -.00000018  00000+0  00000+0 0  9991",
        "tle_line2": "2 43539  55.1727 164.7667 0092471 235.1548 126.2091  1.00259974 27154"
      },
      "geometry": {
        "type": "Point",
        "coordinates": [
          172.25722008476123,
          10.605388148547554
        ]
      }
    },
    {
      "type": "Feature",
      "properties": {
        "norad_id": 43564,
        "name": "GSAT0221 (GALILEO 25)",
        "group": "gnss",
        "lat": -55.802212777812585,
        "lon": -121.45682670110644,
        "alt_km": 23209.529830135503,
        "timestamp": "2025-12-02T23:34:15.759057+00:00",
        "meta_object_name": "GSAT0221 (GALILEO 25)",
        "meta_object_id": "2018-060A",
        "meta_epoch": "2025-12-01T09:15:23.303232",
        "meta_mean_motion": 1.70475711,
        "meta_eccentricity": 0.00066191,
        "meta_inclination": 57.2301,
        "meta_ra_of_asc_node": 347.1247,
        "meta_arg_of_pericenter": 279.777,
        "meta_mean_anomaly": 80.1905,
        "meta_ephemeris_type": 0,
        "meta_classification_type": "U",
        "meta_norad_cat_id": 43564,
        "meta_element_set_no": 999,
        "meta_rev_at_epoch": 4579,
        "meta_bstar": 0,
        "meta_mean_motion_dot": -5.9e-07,
        "meta_mean_motion_ddot": 0,
        "tle_line1": "1 43564U 18060A   25335.38568638 -.00000059  00000+0  00000+0 0  9995",
        "tle_line2": "2 43564  57.2301 347.1247 0006619 279.7770  80.1905  1.70475711 45792"
      },
      "geometry": {
        "type": "Point",
        "coordinates": [
          -121.45682670110644,
          -55.802212777812585
        ]
      }
    },
    {
      "type": "Feature",
      "properties": {
        "norad_id": 43565,
        "name": "GSAT0222 (GALILEO 26)",
        "group": "gnss",
        "lat": 43.464071504822535,
        "lon": 129.46567898159552,
        "alt_km": 23229.641382675458,
        "timestamp": "2025-12-02T23:34:15.759069+00:00",
        "meta_object_name": "GSAT0222 (GALILEO 26)",
        "meta_object_id": "2018-060B",
        "meta_epoch": "2025-11-29T06:12:28.687968",
        "meta_mean_motion": 1.70475509,
        "meta_eccentricity": 0.00061732,
        "meta_inclination": 57.2346,
        "meta_ra_of_asc_node": 347.1853,
        "meta_arg_of_pericenter": 259.4518,
        "meta_mean_anomaly": 100.5223,
        "meta_ephemeris_type": 0,
        "meta_classification_type": "U",
        "meta_norad_cat_id": 43565,
        "meta_element_set_no": 999,
        "meta_rev_at_epoch": 4580,
        "meta_bstar": 0,
        "meta_mean_motion_dot": -5.5e-07,
        "meta_mean_motion_ddot": 0,
        "tle_line1": "1 43565U 18060B   25333.25866537 -.00000055  00000+0  00000+0 0  9995",
        "tle_line2": "2 43565  57.2346 347.1853 0006173 259.4518 100.5223  1.70475509 45802"
      },
      "geometry": {
        "type": "Point",
        "coordinates": [
          129.46567898159552,
          43.464071504822535
        ]
      }
    },
    {
      "type": "Feature",
      "properties": {
        "norad_id": 43566,
        "name": "GSAT0219 (GALILEO 23)",
        "group": "gnss",
        "lat": -8.864555819716104,
        "lon": -18.672313833780105,
        "alt_km": 23215.868088249845,
        "timestamp": "2025-12-02T23:34:15.759081+00:00",
        "meta_object_name": "GSAT0219 (GALILEO 23)",
        "meta_object_id": "2018-060C",
        "meta_epoch": "2025-11-30T01:35:38.037408",
        "meta_mean_motion": 1.70475682,
        "meta_eccentricity": 0.00057799,
        "meta_inclination": 57.2334,
        "meta_ra_of_asc_node": 347.165,
        "meta_arg_of_pericenter": 285.7575,
        "meta_mean_anomaly": 74.2225,
        "meta_ephemeris_type": 0,
        "meta_classification_type": "U",
        "meta_norad_cat_id": 43566,
        "meta_element_set_no": 999,
        "meta_rev_at_epoch": 4579,
        "meta_bstar": 0,
        "meta_mean_motion_dot": -5.6e-07,
        "meta_mean_motion_ddot": 0,
        "tle_line1": "1 43566U 18060C   25334.06641247 -.00000056  00000+0  00000+0 0  9996",
        "tle_line2": "2 43566  57.2334 347.1650 0005779 285.7575  74.2225  1.70475682 45790"
      },
      "geometry": {
        "type": "Point",
        "coordinates": [
          -18.672313833780105,
          -8.864555819716104
        ]
      }
    },
    {
      "type": "Feature",
      "properties": {
        "norad_id": 43567,
        "name": "GSAT0220 (GALILEO 24)",
        "group": "gnss",
        "lat": -27.86032042497994,
        "lon": -172.997853258932,
        "alt_km": 23218.66110795555,
        "timestamp": "2025-12-02T23:34:15.759097+00:00",
        "meta_object_name": "GSAT0220 (GALILEO 24)",
        "meta_object_id": "2018-060D",
        "meta_epoch": "2025-11-30T20:58:25.885344",
        "meta_mean_motion": 1.70475446,
        "meta_eccentricity": 0.00061088,
        "meta_inclination": 57.233,
        "meta_ra_of_asc_node": 347.1438,
        "meta_arg_of_pericenter": 281.1334,
        "meta_mean_anomaly": 78.841,
        "meta_ephemeris_type": 0,
        "meta_classification_type": "U",
        "meta_norad_cat_id": 43567,
        "meta_element_set_no": 999,
        "meta_rev_at_epoch": 4579,
        "meta_bstar": 0,
        "meta_mean_motion_dot": -5.8e-07,
        "meta_mean_motion_ddot": 0,
        "tle_line1": "1 43567U 18060D   25334.87391071 -.00000058  00000+0  00000+0 0  9995",
        "tle_line2": "2 43567  57.2330 347.1438 0006108 281.1334  78.8410  1.70475446 45795"
      },
      "geometry": {
        "type": "Point",
        "coordinates": [
          -172.997853258932,
          -27.86032042497994
        ]
      }
    }
  ]
}